CELESTIS-17 & SHERPA-FX1
1 47486U 21006CB  26068.64311433  .00007207  00000+0  24301-3 0  9993
2 47486  97.2397 112.1052 0006630 178.1385 181.9882 15.30994801284065
STARLINK-32391          
1 61855U 24202L   26068.51963344 -.00005904  00000+0 -20506-3 0  9997
2 61855  43.0046 238.7795 0002418 308.2323  51.8311 15.27594358 75304
